NORAD_CAT_ID,OBJECT_NAME,OBJECT_TYPE,EPOCH,MEAN_MOTION,ECCENTRICITY,INCLINATION,RA_OF_ASC_NODE,ARG_OF_PERICENTER,MEAN_ANOMALY,BSTAR,MEAN_MOTION_DOT,MEAN_MOTION_DDOT,TLE_LINE0,TLE_LINE1,TLE_LINE2,SEMIMAJOR_AXIS,PERIOD,APOGEE,PERIGEE,DECAYED
51897.0,STARLINK-3598,PAYLOAD,2022-05-30 14:00:01,15.39854234,0.0001367,53.2174,72.2299,60.3416,95.7143,-0.019214,-0.00716067,0.0,0 STARLINK-3598,1 51897U 22022AX  22150.58334491 -.00716067  00000-0 -19214-1 0  9992,2 51897  53.2174  72.2299 0001367  60.3416  95.7143 15.39854234  1309,6824.677,93.515,447.475,445.609,0.0
51897.0,STARLINK-3598,PAYLOAD,2022-05-30 21:06:52,15.40277266,0.0001157,53.2168,70.8159,105.3469,254.7665,-0.0089009,-0.00348119,0.0,0 STARLINK-3598,1 51897U 22022AX  22150.87976942 -.00348119  00000-0 -89009-2 0  9996,2 51897  53.2168  70.8159 0001157 105.3469 254.7665 15.40277266 15066,6823.427,93.49,446.082,444.503,0.0
51897.0,STARLINK-3598,PAYLOAD,2022-05-31 06:00:02,15.38729726,0.0001296999999999,53.2171,69.0986,68.0924,184.5719,-0.015821,-0.00570946,0.0,0 STARLINK-3598,1 51897U 22022AX  22151.25002315 -.00570946  00000-0 -15821-1 0  9998,2 51897  53.2171  69.0986 0001297  68.0924 184.5719 15.38729726 15110,6828.002,93.584,450.752,448.981,0.0
51897.0,STARLINK-3598,PAYLOAD,2022-05-31 14:00:01,15.38323987,0.0001229,53.2175,67.5346,70.5683,229.3005,-0.020189,-0.00715405,0.0,0 STARLINK-3598,1 51897U 22022AX  22151.58334491 -.00715405  00000-0 -20189-1 0  9991,2 51897  53.2175  67.5346 0001229  70.5683 229.3005 15.38323987 15162,6829.2019999999975,93.608,451.906,450.228,0.0
51897.0,STARLINK-3598,PAYLOAD,2022-05-31 20:30:01,15.38918886,0.0002104,53.2168,66.2466,30.2664,329.8463,-0.0082885,-0.0031151,0.0,0 STARLINK-3598,1 51897U 22022AX  22151.85418286 -.00311510  00000-0 -82885-2 0  9997,2 51897  53.2168  66.2466 0002104  30.2664 329.8463 15.38918886 15216,6827.441999999999,93.572,450.744,447.871,0.0
51897.0,STARLINK-3598,PAYLOAD,2022-06-01 14:00:01,15.36794222,0.000125,53.2174,62.8504,58.021,20.1453,-0.021239,-0.00715911,0.0,0 STARLINK-3598,1 51897U 22022AX  22152.58334491 -.00715911  00000-0 -21239-1 0  9991,2 51897  53.2174  62.8504 0001250  58.0210  20.1453 15.36794222 15320,6833.733,93.702,456.453,454.744,0.0
51897.0,STARLINK-3598,PAYLOAD,2022-06-01 20:00:01,15.36414711,0.0001238,53.2176,61.6814,61.9224,319.9551,-0.021646,-0.00720339,0.0,0 STARLINK-3598,1 51897U 22022AX  22152.83334491 -.00720339  00000-0 -21646-1 0  9991,2 51897  53.2176  61.6814 0001238  61.9224 319.9551 15.36414711  1300,6834.859,93.725,457.57,455.877,0.0
51897.0,STARLINK-3598,PAYLOAD,2022-06-03 01:35:45,15.35794612,0.0002718,53.2182,55.907,23.7248,336.3881,-0.0063571,-0.0021861,0.0,0 STARLINK-3598,1 51897U 22022AX  22154.06649911 -.00218610  00000-0 -63571-2 0  9992,2 51897  53.2182  55.9070 0002718  23.7248 336.3881 15.35794612 15554,6836.698,93.763,460.422,456.705,0.0
51897.0,STARLINK-3598,PAYLOAD,2022-06-04 10:23:43,15.3545739,0.0006565,53.2186,49.5149,42.8559,317.2956,-0.0014708,-0.00051471,0.0,0 STARLINK-3598,1 51897U 22022AX  22155.43314630 -.00051471  00000-0 -14708-2 0  9999,2 51897  53.2186  49.5149 0006565  42.8559 317.2956 15.35457390 15768,6837.699000000001,93.783,464.05300000000005,455.075,0.0
51897.0,STARLINK-3598,PAYLOAD,2022-06-05 22:00:00,15.30163891,0.000158,53.2174,42.6786,54.6257,199.0994,-0.026156,-0.00714237,0.0,0 STARLINK-3598,1 51897U 22022AX  22156.91667824 -.00714237  00000-0 -26156-1 0  9994,2 51897  53.2174  42.6786 0001580  54.6257 199.0994 15.30163891 15981,6853.46,94.108,476.408,474.242,0.0
51897.0,STARLINK-3598,PAYLOAD,2022-06-06 14:00:01,15.29143591,0.0001281,53.2174,39.5915,64.4172,262.5108,-0.026977,-0.00713695,0.0,0 STARLINK-3598,1 51897U 22022AX  22157.58334491 -.00713695  00000-0 -26977-1 0  9997,2 51897  53.2174  39.5915 0001281  64.4172 262.5108 15.29143591  1300,6856.5080000000025,94.17,479.251,477.495,0.0
51897.0,STARLINK-3598,PAYLOAD,2022-06-06 22:00:00,15.28636176,0.0001545,53.2175,38.0522,45.7637,316.8441,-0.027559,-0.00725799,0.0,0 STARLINK-3598,1 51897U 22022AX  22157.91667824 -.00725799  00000-0 -27559-1 0  9998,2 51897  53.2175  38.0522 0001545  45.7637 316.8441 15.28636176 16146,6858.025,94.202,480.95,478.831,0.0
51897.0,STARLINK-3598,PAYLOAD,2022-06-07 14:00:01,15.2761472,0.0001405,53.2174,34.9722,52.6107,19.524,-0.02835,-0.00723696,0.0,0 STARLINK-3598,1 51897U 22022AX  22158.58334491 -.00723696  00000-0 -28350-1 0  9997,2 51897  53.2174  34.9722 0001405  52.6107  19.5240 15.27614720  1302,6861.081999999999,94.265,483.911,481.983,0.0
51897.0,STARLINK-3598,PAYLOAD,2022-06-07 22:00:00,15.27106261,0.0001706999999999,53.2175,33.4368,43.1222,62.8542,-0.028889,-0.00725956,0.0,0 STARLINK-3598,1 51897U 22022AX  22158.91667824 -.00725956  00000-0 -28889-1 0  9991,2 51897  53.2175  33.4368 0001707  43.1222  62.8542 15.27106261  1303,6862.605,94.296,485.641,483.299,0.0
51897.0,STARLINK-3598,PAYLOAD,2022-06-08 06:00:02,15.26595434,0.0001382,53.2173,31.9001,63.3462,75.9249,-0.029261,-0.00724038,0.0,0 STARLINK-3598,1 51897U 22022AX  22159.25002315 -.00724038  00000-0 -29261-1 0  9992,2 51897  53.2173  31.9001 0001382  63.3462  75.9249 15.26595434 16349,6864.136,94.328,486.949,485.052,0.0
51897.0,STARLINK-3598,PAYLOAD,2022-06-08 14:00:01,15.26086446,0.0001513,53.2174,30.3639,59.1084,112.7173,-0.029809,-0.00726143,0.0,0 STARLINK-3598,1 51897U 22022AX  22159.58334491 -.00726143  00000-0 -29809-1 0  9998,2 51897  53.2174  30.3639 0001513  59.1084 112.7173 15.26086446  1303,6865.6619999999975,94.359,488.566,486.48800000000006,0.0
51897.0,STARLINK-3598,PAYLOAD,2022-06-08 22:00:01,15.25574695,0.0001705,53.2175,28.8318,50.1036,153.7906,-0.030144,-0.00723236,0.0,0 STARLINK-3598,1 51897U 22022AX  22159.91668981 -.00723236  00000-0 -30144-1 0  9993,2 51897  53.2175  28.8318 0001705  50.1036 153.7906 15.25574695  1307,6867.196999999999,94.391,490.233,487.891,0.0
51897.0,STARLINK-3598,PAYLOAD,2022-06-09 06:00:00,15.25066576,0.000143,53.2173,27.2987,66.7086,168.5138,-0.030747,-0.00726222,0.0,0 STARLINK-3598,1 51897U 22022AX  22160.25001157 -.00726222  00000-0 -30747-1 0  9995,2 51897  53.2173  27.2987 0001430  66.7086 168.5138 15.25066576 16494,6868.723000000001,94.422,491.57,489.605,0.0
51897.0,STARLINK-3598,PAYLOAD,2022-06-09 14:00:01,15.24555202,0.0001462,53.2175,25.766,62.1241,203.879,-0.031102,-0.00723573,0.0,0 STARLINK-3598,1 51897U 22022AX  22160.58334491 -.00723573  00000-0 -31102-1 0  9993,2 51897  53.2175  25.7660 0001462  62.1241 203.8790 15.24555202  1304,6870.2580000000025,94.454,493.128,491.119,0.0
51897.0,STARLINK-3598,PAYLOAD,2022-06-09 22:00:00,15.24045333,0.000158,53.2176,24.2379,52.0056,244.163,-0.031598,-0.00723935,0.0,0 STARLINK-3598,1 51897U 22022AX  22160.91667824 -.00723935  00000-0 -31598-1 0  9990,2 51897  53.2176  24.2379 0001580  52.0056 244.1630 15.24045333  1309,6871.791,94.485,494.741,492.57,0.0
51897.0,STARLINK-3598,PAYLOAD,2022-06-10 08:00:01,15.23408605,0.0001215,53.2176,22.3253,71.0696,351.9463,-0.032272,-0.00725284,0.0,0 STARLINK-3598,1 51897U 22022AX  22161.33334491 -.00725284  00000-0 -32272-1 0  9997,2 51897  53.2176  22.3253 0001215  71.0696 351.9463 15.23408605 16665,6873.705,94.525,496.405,494.735,0.0
51897.0,STARLINK-3598,PAYLOAD,2022-06-10 14:00:01,15.23023644,0.0001315999999999,53.2177,21.179,63.6983,290.9668,-0.032422,-0.00720675,0.0,0 STARLINK-3598,1 51897U 22022AX  22161.58334491 -.00720675  00000-0 -32422-1 0  9990,2 51897  53.2177  21.1790 0001316  63.6983 290.9668 15.23023644  1307,6874.863,94.549,497.633,495.824,0.0
51897.0,STARLINK-3598,PAYLOAD,2022-06-10 22:00:00,15.22517232,0.0001438,53.2176,19.6543,53.4289,329.5621,-0.0332089999999999,-0.00726713,0.0,0 STARLINK-3598,1 51897U 22022AX  22161.91667824 -.00726713  00000-0 -33209-1 0  9999,2 51897  53.2176  19.6543 0001438  53.4289 329.5621 15.22517232  1303,6876.388000000001,94.58,499.242,497.264,0.0
51897.0,STARLINK-3598,PAYLOAD,2022-06-11 14:00:01,15.21494542,0.0001372,53.2176,16.6029,60.6758,17.1355,-0.03398,-0.00721746,0.0,0 STARLINK-3598,1 51897U 22022AX  22162.58334491 -.00721746  00000-0 -33980-1 0  9991,2 51897  53.2176  16.6029 0001372  60.6758  17.1355 15.21494542 16854,6879.469,94.644,502.278,500.39,0.0
51897.0,STARLINK-3598,PAYLOAD,2022-06-11 22:00:00,15.20987294,0.0001537,53.2176,15.0819,53.3348,50.9643,-0.03474,-0.00726604,0.0,0 STARLINK-3598,1 51897U 22022AX  22162.91667824 -.00726604  00000-0 -34740-1 0  9990,2 51897  53.2176  15.0819 0001537  53.3348  50.9643 15.20987294  1300,6880.998000000001,94.675,503.921,501.806,0.0
51897.0,STARLINK-3598,PAYLOAD,2022-06-12 14:00:01,15.19965677,0.0001475,53.2177,12.0377,64.1222,91.32,-0.035617,-0.00723176,0.0,0 STARLINK-3598,1 51897U 22022AX  22163.58334491 -.00723176  00000-0 -35617-1 0  9990,2 51897  53.2177  12.0377 0001475  64.1222  91.3200 15.19965677 17000,6884.081,94.739,506.962,504.931,0.0
51897.0,STARLINK-3598,PAYLOAD,2022-06-12 22:00:00,15.19455626,0.0001564,53.2176,10.5201,60.2764,119.8164,-0.036162,-0.00723374,0.0,0 STARLINK-3598,1 51897U 22022AX  22163.91667824 -.00723374  00000-0 -36162-1 0  9992,2 51897  53.2176  10.5201 0001564  60.2764 119.8164 15.19455626  1304,6885.621999999999,94.771,508.564,506.41,0.0
51897.0,STARLINK-3598,PAYLOAD,2022-06-13 14:00:01,15.1843566,0.0001467,53.2176,7.4831,70.0353,157.5231,-0.037218,-0.00722758,0.0,0 STARLINK-3598,1 51897U 22022AX  22164.58334491 -.00722758  00000-0 -37218-1 0  9995,2 51897  53.2176   7.4831 0001467  70.0353 157.5231 15.18435660 17152,6888.705,94.834,511.58,509.559,0.0
51897.0,STARLINK-3598,PAYLOAD,2022-06-13 22:00:00,15.1792496,0.0001501,53.2176,5.968999999999999,66.2047,184.1663,-0.037717,-0.00721766,0.0,0 STARLINK-3598,1 51897U 22022AX  22164.91667824 -.00721766  00000-0 -37717-1 0  9993,2 51897  53.2176   5.9690 0001501  66.2047 184.1663 15.17924960  1304,6890.25,94.866,513.149,511.081,0.0
